HYPERFIELD-1A           
1 60562U 24149CY  26068.76488211  .00008569  00000+0  30052-3 0  9998
2 60562  97.3842 149.5066 0003865 313.7844  46.3076 15.29681349 86836
STARLINK-34236          
1 64743U 25144V   26068.57151855  .00020612  00000+0  70619-3 0  9995
2 64743  53.1600 181.5955 0001155  78.1403 281.9727 15.30196896 39691
